UNKNOWN                 
1 87159U          25300.62321296  .00001315  00000+0  15332-2 0  9996
2 87159  90.3475  67.7364 0104663  34.9602 325.8371 13.65910476550390
UNKNOWN                 
1 87163U          25303.22440507  .00002328  00000+0  73076-3 0  9992
2 87163  65.6028 343.5947 0642334  84.1991 283.1880 13.63575737571586
UNKNOWN                 
1 87164U          25303.14183769  .00005286  00000+0  11043-2 0  9999
2 87164  65.2022  94.2637 0097339  76.0443 285.1457 14.57787519629419
UNKNOWN                 
1 87204U          25303.44520161  .00002964  00000+0  11740-2 0  9992
2 87204  98.5391 165.1402 0046756  90.2333 270.4206 14.29017347619257
UNKNOWN                 
1 87211U          25299.26874488  .00004809  00000+0  13414-2 0  9998
2 87211  99.0861 295.7046 0052991 301.4501  72.4478 14.45961593700913
UNKNOWN                 
1 87214U          25296.94270461  .00002489  00000+0  22393-2 0  9992
2 87214 100.3267 290.7312 0074862  19.8485 340.5553 13.83918086593356
UNKNOWN                 
1 87237U          25303.63495323  .00000465  00000+0  38425-3 0  9994
2 87237  99.2629 359.2011 0103631  41.3719 110.3821 13.91698471605765
UNKNOWN                 
1 87239U          25301.23879622  .00012872  00000+0  32692-2 0  9992
2 87239  82.8732 121.4676 0019776 186.7162 173.3774 14.50563039621275
UNKNOWN                 
1 87245U          25303.61266186  .00007081  00000+0  14540-2 0  9996
2 87245  65.6415 163.0992 0437202 142.7020 253.9509 14.14973426608108
UNKNOWN                 
1 87271U          25302.43252164  .00005722  00000+0  10835-2 0  9998
2 87271  65.7572 355.3150 0421537  97.1411 267.7789 14.20881307606075
UNKNOWN                 
1 87280U          25300.40086691  .00000652  00000+0  11215-2 0  9993
2 87280  64.6174 349.9795 0131212 269.2981  89.3022 13.48493227527605
UNKNOWN                 
1 87293U          25303.63306072  .00017568  00000+0  35616-2 0  9998
2 87293  65.8972 259.7232 0425460  23.1180 338.8431 14.16979512607888
