CCSDS_OMM_VERS = 2.0
CREATION_DATE  = 
ORIGINATOR     = 

OBJECT_NAME    = UNKNOWN
OBJECT_ID      = 
CENTER_NAME    = EARTH
REF_FRAME      = TEME
TIME_SYSTEM    = UTC
MEAN_ELEMENT_THEORY = SGP/SGP4

EPOCH          = 2025-10-27T14:57:25.599744
MEAN_MOTION    = 13.65910476
ECCENTRICITY   = .0104663
INCLINATION    = 90.3475
RA_OF_ASC_NODE = 67.7364
ARG_OF_PERICENTER = 34.9602
MEAN_ANOMALY   = 325.8371

EPHEMERIS_TYPE = 0
CLASSIFICATION_TYPE = U
NORAD_CAT_ID   = 87159
ELEMENT_SET_NO = 999
REV_AT_EPOCH   = 55039
BSTAR          = .15332E-2
MEAN_MOTION_DOT = .1315E-4
MEAN_MOTION_DDOT = 0

CCSDS_OMM_VERS = 2.0
CREATION_DATE  = 
ORIGINATOR     = 

OBJECT_NAME    = UNKNOWN
OBJECT_ID      = 
CENTER_NAME    = EARTH
REF_FRAME      = TEME
TIME_SYSTEM    = UTC
MEAN_ELEMENT_THEORY = SGP/SGP4

EPOCH          = 2025-10-30T05:23:08.598048
MEAN_MOTION    = 13.63575737
ECCENTRICITY   = .0642334
INCLINATION    = 65.6028
RA_OF_ASC_NODE = 343.5947
ARG_OF_PERICENTER = 84.1991
MEAN_ANOMALY   = 283.1880

EPHEMERIS_TYPE = 0
CLASSIFICATION_TYPE = U
NORAD_CAT_ID   = 87163
ELEMENT_SET_NO = 999
REV_AT_EPOCH   = 57158
BSTAR          = .73076E-3
MEAN_MOTION_DOT = .2328E-4
MEAN_MOTION_DDOT = 0

CCSDS_OMM_VERS = 2.0
CREATION_DATE  = 
ORIGINATOR     = 

OBJECT_NAME    = UNKNOWN
OBJECT_ID      = 
CENTER_NAME    = EARTH
REF_FRAME      = TEME
TIME_SYSTEM    = UTC
MEAN_ELEMENT_THEORY = SGP/SGP4

EPOCH          = 2025-10-30T03:24:14.776416
MEAN_MOTION    = 14.57787519
ECCENTRICITY   = .0097339
INCLINATION    = 65.2022
RA_OF_ASC_NODE = 94.2637
ARG_OF_PERICENTER = 76.0443
MEAN_ANOMALY   = 285.1457

EPHEMERIS_TYPE = 0
CLASSIFICATION_TYPE = U
NORAD_CAT_ID   = 87164
ELEMENT_SET_NO = 999
REV_AT_EPOCH   = 62941
BSTAR          = .11043E-2
MEAN_MOTION_DOT = .5286E-4
MEAN_MOTION_DDOT = 0

CCSDS_OMM_VERS = 2.0
CREATION_DATE  = 
ORIGINATOR     = 

OBJECT_NAME    = UNKNOWN
OBJECT_ID      = 
CENTER_NAME    = EARTH
REF_FRAME      = TEME
TIME_SYSTEM    = UTC
MEAN_ELEMENT_THEORY = SGP/SGP4

EPOCH          = 2025-10-30T10:41:05.419104
MEAN_MOTION    = 14.29017347
ECCENTRICITY   = .0046756
INCLINATION    = 98.5391
RA_OF_ASC_NODE = 165.1402
ARG_OF_PERICENTER = 90.2333
MEAN_ANOMALY   = 270.4206

EPHEMERIS_TYPE = 0
CLASSIFICATION_TYPE = U
NORAD_CAT_ID   = 87204
ELEMENT_SET_NO = 999
REV_AT_EPOCH   = 61925
BSTAR          = .1174E-2
MEAN_MOTION_DOT = .2964E-4
MEAN_MOTION_DDOT = 0

CCSDS_OMM_VERS = 2.0
CREATION_DATE  = 
ORIGINATOR     = 

OBJECT_NAME    = UNKNOWN
OBJECT_ID      = 
CENTER_NAME    = EARTH
REF_FRAME      = TEME
TIME_SYSTEM    = UTC
MEAN_ELEMENT_THEORY = SGP/SGP4

EPOCH          = 2025-10-26T06:26:59.557632
MEAN_MOTION    = 14.45961593
ECCENTRICITY   = .0052991
INCLINATION    = 99.0861
RA_OF_ASC_NODE = 295.7046
ARG_OF_PERICENTER = 301.4501
MEAN_ANOMALY   = 72.4478

EPHEMERIS_TYPE = 0
CLASSIFICATION_TYPE = U
NORAD_CAT_ID   = 87211
ELEMENT_SET_NO = 999
REV_AT_EPOCH   = 70091
BSTAR          = .13414E-2
MEAN_MOTION_DOT = .4809E-4
MEAN_MOTION_DDOT = 0

CCSDS_OMM_VERS = 2.0
CREATION_DATE  = 
ORIGINATOR     = 

OBJECT_NAME    = UNKNOWN
OBJECT_ID      = 
CENTER_NAME    = EARTH
REF_FRAME      = TEME
TIME_SYSTEM    = UTC
MEAN_ELEMENT_THEORY = SGP/SGP4

EPOCH          = 2025-10-23T22:37:29.678304
MEAN_MOTION    = 13.83918086
ECCENTRICITY   = .0074862
INCLINATION    = 100.3267
RA_OF_ASC_NODE = 290.7312
ARG_OF_PERICENTER = 19.8485
MEAN_ANOMALY   = 340.5553

EPHEMERIS_TYPE = 0
CLASSIFICATION_TYPE = U
NORAD_CAT_ID   = 87214
ELEMENT_SET_NO = 999
REV_AT_EPOCH   = 59335
BSTAR          = .22393E-2
MEAN_MOTION_DOT = .2489E-4
MEAN_MOTION_DDOT = 0

CCSDS_OMM_VERS = 2.0
CREATION_DATE  = 
ORIGINATOR     = 

OBJECT_NAME    = UNKNOWN
OBJECT_ID      = 
CENTER_NAME    = EARTH
REF_FRAME      = TEME
TIME_SYSTEM    = UTC
MEAN_ELEMENT_THEORY = SGP/SGP4

EPOCH          = 2025-10-30T15:14:19.959072
MEAN_MOTION    = 13.91698471
ECCENTRICITY   = .0103631
INCLINATION    = 99.2629
RA_OF_ASC_NODE = 359.2011
ARG_OF_PERICENTER = 41.3719
MEAN_ANOMALY   = 110.3821

EPHEMERIS_TYPE = 0
CLASSIFICATION_TYPE = U
NORAD_CAT_ID   = 87237
ELEMENT_SET_NO = 999
REV_AT_EPOCH   = 60576
BSTAR          = .38425E-3
MEAN_MOTION_DOT = .465E-5
MEAN_MOTION_DDOT = 0

CCSDS_OMM_VERS = 2.0
CREATION_DATE  = 
ORIGINATOR     = 

OBJECT_NAME    = UNKNOWN
OBJECT_ID      = 
CENTER_NAME    = EARTH
REF_FRAME      = TEME
TIME_SYSTEM    = UTC
MEAN_ELEMENT_THEORY = SGP/SGP4

EPOCH          = 2025-10-28T05:43:51.993408
MEAN_MOTION    = 14.50563039
ECCENTRICITY   = .0019776
INCLINATION    = 82.8732
RA_OF_ASC_NODE = 121.4676
ARG_OF_PERICENTER = 186.7162
MEAN_ANOMALY   = 173.3774

EPHEMERIS_TYPE = 0
CLASSIFICATION_TYPE = U
NORAD_CAT_ID   = 87239
ELEMENT_SET_NO = 999
REV_AT_EPOCH   = 62127
BSTAR          = .32692E-2
MEAN_MOTION_DOT = .12872E-3
MEAN_MOTION_DDOT = 0

CCSDS_OMM_VERS = 2.0
CREATION_DATE  = 
ORIGINATOR     = 

OBJECT_NAME    = UNKNOWN
OBJECT_ID      = 
CENTER_NAME    = EARTH
REF_FRAME      = TEME
TIME_SYSTEM    = UTC
MEAN_ELEMENT_THEORY = SGP/SGP4

EPOCH          = 2025-10-30T14:42:13.984704
MEAN_MOTION    = 14.14973426
ECCENTRICITY   = .0437202
INCLINATION    = 65.6415
RA_OF_ASC_NODE = 163.0992
ARG_OF_PERICENTER = 142.7020
MEAN_ANOMALY   = 253.9509

EPHEMERIS_TYPE = 0
CLASSIFICATION_TYPE = U
NORAD_CAT_ID   = 87245
ELEMENT_SET_NO = 999
REV_AT_EPOCH   = 60810
BSTAR          = .1454E-2
MEAN_MOTION_DOT = .7081E-4
MEAN_MOTION_DDOT = 0

CCSDS_OMM_VERS = 2.0
CREATION_DATE  = 
ORIGINATOR     = 

OBJECT_NAME    = UNKNOWN
OBJECT_ID      = 
CENTER_NAME    = EARTH
REF_FRAME      = TEME
TIME_SYSTEM    = UTC
MEAN_ELEMENT_THEORY = SGP/SGP4

EPOCH          = 2025-10-29T10:22:49.869696
MEAN_MOTION    = 14.20881307
ECCENTRICITY   = .0421537
INCLINATION    = 65.7572
RA_OF_ASC_NODE = 355.3150
ARG_OF_PERICENTER = 97.1411
MEAN_ANOMALY   = 267.7789

EPHEMERIS_TYPE = 0
CLASSIFICATION_TYPE = U
NORAD_CAT_ID   = 87271
ELEMENT_SET_NO = 999
REV_AT_EPOCH   = 60607
BSTAR          = .10835E-2
MEAN_MOTION_DOT = .5722E-4
MEAN_MOTION_DDOT = 0

CCSDS_OMM_VERS = 2.0
CREATION_DATE  = 
ORIGINATOR     = 

OBJECT_NAME    = UNKNOWN
OBJECT_ID      = 
CENTER_NAME    = EARTH
REF_FRAME      = TEME
TIME_SYSTEM    = UTC
MEAN_ELEMENT_THEORY = SGP/SGP4

EPOCH          = 2025-10-27T09:37:14.901024
MEAN_MOTION    = 13.48493227
ECCENTRICITY   = .0131212
INCLINATION    = 64.6174
RA_OF_ASC_NODE = 349.9795
ARG_OF_PERICENTER = 269.2981
MEAN_ANOMALY   = 89.3022

EPHEMERIS_TYPE = 0
CLASSIFICATION_TYPE = U
NORAD_CAT_ID   = 87280
ELEMENT_SET_NO = 999
REV_AT_EPOCH   = 52760
BSTAR          = .11215E-2
MEAN_MOTION_DOT = .652E-5
MEAN_MOTION_DDOT = 0

CCSDS_OMM_VERS = 2.0
CREATION_DATE  = 
ORIGINATOR     = 

OBJECT_NAME    = UNKNOWN
OBJECT_ID      = 
CENTER_NAME    = EARTH
REF_FRAME      = TEME
TIME_SYSTEM    = UTC
MEAN_ELEMENT_THEORY = SGP/SGP4

EPOCH          = 2025-10-30T15:11:36.446208
MEAN_MOTION    = 14.16979512
ECCENTRICITY   = .042546
INCLINATION    = 65.8972
RA_OF_ASC_NODE = 259.7232
ARG_OF_PERICENTER = 23.1180
MEAN_ANOMALY   = 338.8431

EPHEMERIS_TYPE = 0
CLASSIFICATION_TYPE = U
NORAD_CAT_ID   = 87293
ELEMENT_SET_NO = 999
REV_AT_EPOCH   = 60788
BSTAR          = .35616E-2
MEAN_MOTION_DOT = .17568E-3
MEAN_MOTION_DDOT = 0

